$$SOE
2460147.500000000, A.D. 2023-Jul-22 00:00:00.0000, -3.434421244590477E+08, -1.017001705643759E+08, -9.666882698978946E+06,
2460154.500000000, A.D. 2023-Jul-29 00:00:00.0000, -3.381523066555049E+08, -1.115194106341131E+08, -9.526314717347704E+06,
2460161.500000000, A.D. 2023-Aug-05 00:00:00.0000, -3.324993231012284E+08, -1.212188391868203E+08, -9.375512392614253E+06,
2460168.500000000, A.D. 2023-Aug-12 00:00:00.0000, -3.264826627563052E+08, -1.307856360595452E+08, -9.214451861835711E+06,
2460175.500000000, A.D. 2023-Aug-19 00:00:00.0000, -3.201021522973406E+08, -1.402066283438154E+08, -9.043118478274420E+06,
2460182.500000000, A.D. 2023-Aug-26 00:00:00.0000, -3.133579854828832E+08, -1.494682837439383E+08, -8.861507621380493E+06,
2460189.500000000, A.D. 2023-Sep-02 00:00:00.0000, -3.062507547640904E+08, -1.585567051615285E+08, -8.669625574531212E+06,
2460196.500000000, A.D. 2023-Sep-09 00:00:00.0000, -2.987814851994342E+08, -1.674576267750491E+08, -8.467490479943871E+06,
2460203.500000000, A.D. 2023-Sep-16 00:00:00.0000, -2.909516705919966E+08, -1.761564119287031E+08, -8.255133393451422E+06,
2460210.500000000, A.D. 2023-Sep-23 00:00:00.0000, -2.827633115081302E+08, -1.846380528307532E+08, -8.032599456059314E+06,
2460217.500000000, A.D. 2023-Sep-30 00:00:00.0000, -2.742189555754845E+08, -1.928871711895924E+08, -7.799949055459619E+06,
2460224.500000000, A.D. 2023-Oct-07 00:00:00.0000, -2.653217424502827E+08, -2.008880206845105E+08, -7.557258807105988E+06,
2460231.500000000, A.D. 2023-Oct-14 00:00:00.0000, -2.560754524251534E+08, -2.086244949777656E+08, -7.304622721765935E+06,
2460238.500000000, A.D. 2023-Oct-21 00:00:00.0000, -2.464845554308019E+08, -2.160801400973190E+08, -7.042153724518672E+06,
2460245.500000000, A.D. 2023-Oct-28 00:00:00.0000, -2.365542617964364E+08, -2.232381693970595E+08, -6.769985207889676E+06,
2460252.500000000, A.D. 2023-Nov-04 00:00:00.0000, -2.262905759066921E+08, -2.300814823673019E+08, -6.488272563778311E+06,
2460259.500000000, A.D. 2023-Nov-11 00:00:00.0000, -2.157003524036449E+08, -2.365926884357836E+08, -6.197194754602924E+06,
2460266.500000000, A.D. 2023-Nov-18 00:00:00.0000, -2.047913544721067E+08, -2.427541364020482E+08, -5.896955942956895E+06,
2460273.500000000, A.D. 2023-Nov-25 00:00:00.0000, -1.935723138161665E+08, -2.485479500932047E+08, -5.587787176442713E+06,
2460280.500000000, A.D. 2023-Dec-02 00:00:00.0000, -1.820529918885722E+08, -2.539560708847571E+08, -5.269948120096460E+06,
2460287.500000000, A.D. 2023-Dec-09 00:00:00.0000, -1.702442417784659E+08, -2.589603077907494E+08, -4.943728834171519E+06,
2460294.500000000, A.D. 2023-Dec-16 00:00:00.0000, -1.581580698338084E+08, -2.635423957583116E+08, -4.609451605232865E+06,
2460301.500000000, A.D. 2023-Dec-23 00:00:00.0000, -1.458076959025024E+08, -2.676840621139189E+08, -4.267472785358056E+06,
2460308.500000000, A.D. 2023-Dec-30 00:00:00.0000, -1.332076126208940E+08, -2.713671007134781E+08, -3.918184405814171E+06,
2460315.500000000, A.D. 2024-Jan-06 00:00:00.0000, -1.203736444546473E+08, -2.745734567025537E+08, -3.562015566627175E+06,
2460322.500000000, A.D. 2024-Jan-13 00:00:00.0000, -1.073230020903709E+08, -2.772853241612318E+08, -3.199434007651344E+06,
2460329.500000000, A.D. 2024-Jan-20 00:00:00.0000, -9.407432956283996E+07, -2.794852539059032E+08, -2.830947683272913E+06,
2460336.500000000, A.D. 2024-Jan-27 00:00:00.0000, -8.064774459098838E+07, -2.811562710009746E+08, -2.457106058184966E+06,
2460343.500000000, A.D. 2024-Feb-03 00:00:00.0000, -6.706487083912890E+07, -2.822820029426892E+08, -2.078501114327550E+06,
2460350.500000000, A.D. 2024-Feb-10 00:00:00.0000, -5.334885997572403E+07, -2.828468185823286E+08, -1.695768065334275E+06,
2460357.500000000, A.D. 2024-Feb-17 00:00:00.0000, -3.952440142588057E+07, -2.828359772681155E+08, -1.309585733812779E+06,
2460364.500000000, A.D. 2024-Feb-24 00:00:00.0000, -2.561771773190418E+07, -2.822357873415046E+08, -9.206765345858932E+05,
2460371.500000000, A.D. 2024-Mar-02 00:00:00.0000, -1.165654339992820E+07, -2.810337727964136E+08, -5.298060100966841E+05,
2460378.500000000, A.D. 2024-Mar-09 00:00:00.0000, 2.329914983039930E+06, -2.792188465417856E+08, -1.377818789534271E+05,
2460385.500000000, A.D. 2024-Mar-16 00:00:00.0000, 1.631103973428203E+07, -2.767814880346422E+08, 2.545474355808944E+05,
2460392.500000000, A.D. 2024-Mar-23 00:00:00.0000, 3.025488583404931E+07, -2.737139217055388E+08, 6.462949470327646E+05,
2460399.500000000, A.D. 2024-Mar-30 00:00:00.0000, 4.412828668843997E+07, -2.700102932793915E+08, 1.036538164674848E+06,
2460406.500000000, A.D. 2024-Apr-06 00:00:00.0000, 5.789698322870944E+07, -2.656668439906496E+08, 1.424322805351019E+06,
2460413.500000000, A.D. 2024-Apr-13 00:00:00.0000, 7.152578047955807E+07, -2.606820781009793E+08, 1.808666920756072E+06,
2460420.500000000, A.D. 2024-Apr-20 00:00:00.0000, 8.497873062249613E+07, -2.550569169828066E+08, 2.188565749330238E+06,
2460427.500000000, A.D. 2024-Apr-27 00:00:00.0000, 9.821934031403574E+07, -2.487948360664240E+08, 2.562997369306102E+06,
2460434.500000000, A.D. 2024-May-04 00:00:00.0000, 1.112108008439244E+08, -2.419019810193799E+08, 2.930929048635453E+06,
2460441.500000000, A.D. 2024-May-11 00:00:00.0000, 1.239162390371171E+08, -2.343872590131430E+08, 3.291324199723303E+06,
2460448.500000000, A.D. 2024-May-18 00:00:00.0000, 1.362989857957122E+08, -2.262624010724048E+08, 3.643149847536638E+06,
2460455.500000000, A.D. 2024-May-25 00:00:00.0000, 1.483228582914439E+08, -2.175419919786940E+08, 3.985384498445168E+06,
2460462.500000000, A.D. 2024-Jun-01 00:00:00.0000, 1.599524511015441E+08, -2.082434648836243E+08, 4.317026267103180E+06,
2460469.500000000, A.D. 2024-Jun-08 00:00:00.0000, 1.711534311402440E+08, -1.983870585724962E+08, 4.637101087072477E+06,
2460476.500000000, A.D. 2024-Jun-15 00:00:00.0000, 1.818928309220018E+08, -1.879957357331950E+08, 4.944670851878554E+06,
2460483.500000000, A.D. 2024-Jun-22 00:00:00.0000, 1.921393330113056E+08, -1.770950610434960E+08, 5.238841505149834E+06,
2460490.500000000, A.D. 2024-Jun-29 00:00:00.0000, 2.018635373543356E+08, -1.657130420276091E+08, 5.518770952059656E+06,
2460497.500000000, A.D. 2024-Jul-06 00:00:00.0000, 2.110382081677331E+08, -1.538799374344469E+08, 5.783676177892148E+06,
2460504.500000000, A.D. 2024-Jul-13 00:00:00.0000, 2.196384968341232E+08, -1.416280337069487E+08, 6.032839469201826E+06,
2460511.500000000, A.D. 2024-Jul-20 00:00:00.0000, 2.276421340185934E+08, -1.289913927908016E+08, 6.265613876739860E+06,
2460518.500000000, A.D. 2024-Jul-27 00:00:00.0000, 2.350295864459363E+08, -1.160055774693912E+08, 6.481427789406992E+06,
2460525.500000000, A.D. 2024-Aug-03 00:00:00.0000, 2.417841757599476E+08, -1.027073604445314E+08, 6.679788479779746E+06,
2460532.500000000, A.D. 2024-Aug-10 00:00:00.0000, 2.478921579325824E+08, -8.913442338888882E+07, 6.860284553814232E+06,
2460539.500000000, A.D. 2024-Aug-17 00:00:00.0000, 2.533427627646347E+08, -7.532505229244454E+07, 7.022587283763263E+06,
2460546.500000000, A.D. 2024-Aug-24 00:00:00.0000, 2.581281941679432E+08, -6.131783534166154E+07, 7.166450834445938E+06,
2460553.500000000, A.D. 2024-Aug-31 00:00:00.0000, 2.622435930870335E+08, -4.715136925064606E+07, 7.291711411479825E+06,
2460560.500000000, A.D. 2024-Sep-07 00:00:00.0000, 2.656869661064005E+08, -3.286397920985889E+07, 7.398285377212529E+06,
2460567.500000000, A.D. 2024-Sep-14 00:00:00.0000, 2.684590832911114E+08, -1.849345601242019E+07, 7.486166500140955E+06,
2460574.500000000, A.D. 2024-Sep-21 00:00:00.0000, 2.705633473055494E+08, -4.076813671983883E+06, 7.555422670455162E+06,
2460581.500000000, A.D. 2024-Sep-28 00:00:00.0000, 2.720056377759924E+08, 1.034992639736991E+07, 7.606191983670685E+06,
2460588.500000000, A.D. 2024-Oct-05 00:00:00.0000, 2.727941391926472E+08, 2.475192272343177E+07, 7.638677980094607E+06,
2460595.500000000, A.D. 2024-Oct-12 00:00:00.0000, 2.729391566431272E+08, 3.909567459337899E+07, 7.653144445340419E+06,
2460602.500000000, A.D. 2024-Oct-19 00:00:00.0000, 2.724529221509174E+08, 5.334915585151356E+07, 7.649910038373992E+06,
2460609.500000000, A.D. 2024-Oct-26 00:00:00.0000, 2.713493958332011E+08, 6.748192135602640E+07, 7.629342805707820E+06,
2460616.500000000, A.D. 2024-Nov-02 00:00:00.0000, 2.696440659913463E+08, 8.146518702370517E+07, 7.591854656096432E+06,
2460623.500000000, A.D. 2024-Nov-09 00:00:00.0000, 2.673537516218434E+08, 9.527188504466081E+07, 7.537895885188021E+06,
2460630.500000000, A.D. 2024-Nov-16 00:00:00.0000, 2.644964102617129E+08, 1.088766961980032E+08, 7.467949830051988E+06,
2460637.500000000, A.D. 2024-Nov-23 00:00:00.0000, 2.610909535917032E+08, 1.222560614064151E+08, 7.382527713292979E+06,
2460644.500000000, A.D. 2024-Nov-30 00:00:00.0000, 2.571570728846478E+08, 1.353881748259466E+08, 7.282163708535448E+06,
2460651.500000000, A.D. 2024-Dec-07 00:00:00.0000, 2.527150761260746E+08, 1.482529612816806E+08, 7.167410263460994E+06,
2460658.500000000, A.D. 2024-Dec-14 00:00:00.0000, 2.477857370781207E+08, 1.608320416336607E+08, 7.038833870319724E+06,
2460665.500000000, A.D. 2024-Dec-21 00:00:00.0000, 2.423901545374701E+08, 1.731086871209200E+08, 6.897011413191676E+06,
2460672.500000000, A.D. 2024-Dec-28 00:00:00.0000, 2.365496240105879E+08, 1.850677618713549E+08, 6.742526676266633E+06,
2460679.500000000, A.D. 2025-Jan-04 00:00:00.0000, 2.302855243486271E+08, 1.966956579318644E+08, 6.575966965901986E+06,
2460686.500000000, A.D. 2025-Jan-11 00:00:00.0000, 2.236192172241397E+08, 2.079802262925433E+08, 6.397920143101633E+06,
2460693.500000000, A.D. 2025-Jan-18 00:00:00.0000, 2.165719580767879E+08, 2.189107046208697E+08, 6.208972067685813E+06,
2460700.500000000, A.D. 2025-Jan-25 00:00:00.0000, 2.091648181956627E+08, 2.294776426624863E+08, 6.009704380938053E+06,
2460707.500000000, A.D. 2025-Feb-01 00:00:00.0000, 2.014186174538666E+08, 2.396728265019940E+08, 5.800692589653954E+06,
2460714.500000000, A.D. 2025-Feb-08 00:00:00.0000, 1.933538670065748E+08, 2.494892027333161E+08, 5.582504426956087E+06,
$$EOE